start=new Date('2022-09-13T00:00:00.000Z').valueOf();
sats=[{"COUNTRY_CODE":"US","OBJECT_NAME":"STARLINK-3372","MEAN_MOTION":"15.08838439","ECCENTRICITY":"0.00018510","CLASSIFICATION_TYPE":"U","MEAN_ELEMENT_THEORY":"SGP4","INCLINATION":"53.2163","GP_ID":"212433262","TIME_SYSTEM":"UTC","MEAN_MOTION_DDOT":"0.0000000000000","MEAN_ANOMALY":"309.2290","ARG_OF_PERICENTER":"50.8866","MEAN_MOTION_DOT":"-0.00000255","PERIOD":"95.438","RA_OF_ASC_NODE":"247.7119","EPOCH":"2022-09-12T19:48:15.157152","BSTAR":"0.00000208810000","LAUNCH_DATE":"2022-01-19","OBJECT_TYPE":"PAYLOAD","APOAPSIS":"541.031","NORAD_CAT_ID":"51113","FILE":"3570509","TLE_LINE1":"1 51113U 22005K   22255.82517543 -.00000255  00000-0  20881-5 0  9998","RCS_SIZE":"LARGE","OBJECT_ID":"2022-005K","EPHEMERIS_TYPE":"0","DECAY_DATE":null,"REF_FRAME":"TEME","TLE_LINE2":"2 51113  53.2163 247.7119 0001851  50.8866 309.2290 15.08838439 36566","SEMIMAJOR_AXIS":"6917.885","REV_AT_EPOCH":"3656","CENTER_NAME":"EARTH","PERIAPSIS":"538.470","ELEMENT_SET_NO":"999","SITE":"AFETR"},{"OBJECT_ID":"2022-005L","EPHEMERIS_TYPE":"0","TLE_LINE2":"2 51114  53.2144 249.7315 0001728  47.8318 312.2820 15.08847934 36504","DECAY_DATE":null,"REF_FRAME":"TEME","REV_AT_EPOCH":"3650","CENTER_NAME":"EARTH","SEMIMAJOR_AXIS":"6917.856","SITE":"AFETR","ELEMENT_SET_NO":"999","PERIAPSIS":"538.526","OBJECT_TYPE":"PAYLOAD","LAUNCH_DATE":"2022-01-19","BSTAR":"0.00028444000000","APOAPSIS":"540.917","NORAD_CAT_ID":"51114","FILE":"3570189","RCS_SIZE":"LARGE","TLE_LINE1":"1 51114U 22005L   22255.37989433  .00004243  00000-0  28444-3 0  9991","ARG_OF_PERICENTER":"47.8318","MEAN_ANOMALY":"312.2820","PERIOD":"95.437","MEAN_MOTION_DOT":"0.00004243","EPOCH":"2022-09-12T09:07:02.870112","RA_OF_ASC_NODE":"249.7315","OBJECT_NAME":"STARLINK-3375","COUNTRY_CODE":"US","CLASSIFICATION_TYPE":"U","ECCENTRICITY":"0.00017280","MEAN_MOTION":"15.08847934","GP_ID":"212400417","MEAN_ELEMENT_THEORY":"SGP4","INCLINATION":"53.2144","MEAN_MOTION_DDOT":"0.0000000000000","TIME_SYSTEM":"UTC"},{"SITE":"AFETR","ELEMENT_SET_NO":"999","PERIAPSIS":"538.381","CENTER_NAME":"EARTH","REV_AT_EPOCH":"3655","SEMIMAJOR_AXIS":"6917.836","TLE_LINE2":"2 51115  53.2149 248.0416 0001908  55.8800 304.2372 15.08854429 36554","DECAY_DATE":null,"REF_FRAME":"TEME","EPHEMERIS_TYPE":"0","OBJECT_ID":"2022-005M","RCS_SIZE":"LARGE","TLE_LINE1":"1 51115U 22005M   22255.75156889  .00000452  00000-0  46503-4 0  9990","NORAD_CAT_ID":"51115","FILE":"3570509","APOAPSIS":"541.021","LAUNCH_DATE":"2022-01-19","OBJECT_TYPE":"PAYLOAD","BSTAR":"0.00004650300000","EPOCH":"2022-09-12T18:02:15.552096","RA_OF_ASC_NODE":"248.0416","PERIOD":"95.437","MEAN_MOTION_DOT":"0.00000452","ARG_OF_PERICENTER":"55.8800","MEAN_ANOMALY":"304.2372","MEAN_MOTION_DDOT":"0.0000000000000","TIME_SYSTEM":"UTC","GP_ID":"212431768","MEAN_ELEMENT_THEORY":"SGP4","INCLINATION":"53.2149","CLASSIFICATION_TYPE":"U","ECCENTRICITY":"0.00019080","MEAN_MOTION":"15.08854429","OBJECT_NAME":"STARLINK-3397","COUNTRY_CODE":"US"},{"RA_OF_ASC_NODE":"248.2770","EPOCH":"2022-09-12T16:48:04.504032","MEAN_ANOMALY":"307.9284","ARG_OF_PERICENTER":"52.1882","MEAN_MOTION_DOT":"0.00001604","PERIOD":"95.437","INCLINATION":"53.2170","MEAN_ELEMENT_THEORY":"SGP4","GP_ID":"212432018","TIME_SYSTEM":"UTC","MEAN_MOTION_DDOT":"0.0000000000000","COUNTRY_CODE":"US","OBJECT_NAME":"STARLINK-3243","MEAN_MOTION":"15.08840963","ECCENTRICITY":"0.00019210","CLASSIFICATION_TYPE":"U","SEMIMAJOR_AXIS":"6917.877","CENTER_NAME":"EARTH","REV_AT_EPOCH":"3654","PERIAPSIS":"538.414","ELEMENT_SET_NO":"999","SITE":"AFETR","EPHEMERIS_TYPE":"0","OBJECT_ID":"2022-005N","DECAY_DATE":null,"REF_FRAME":"TEME","TLE_LINE2":"2 51116  53.2170 248.2770 0001921  52.1882 307.9284 15.08840963 36548","NORAD_CAT_ID":"51116","FILE":"3570509","TLE_LINE1":"1 51116U 22005N   22255.70005213  .00001604  00000-0  11885-3 0  9994","RCS_SIZE":"LARGE","BSTAR":"0.00011885000000","OBJECT_TYPE":"PAYLOAD","LAUNCH_DATE":"2022-01-19","APOAPSIS":"541.071"},{"RCS_SIZE":"LARGE","TLE_LINE1":"1 51117U 22005P   22255.40565292 -.00000463  00000-0 -11004-4 0  9998","NORAD_CAT_ID":"51117","FILE":"3570189","APOAPSIS":"541.015","BSTAR":"-0.00001100400000","LAUNCH_DATE":"2022-01-19","OBJECT_TYPE":"PAYLOAD","SITE":"AFETR","ELEMENT_SET_NO":"999","PERIAPSIS":"538.436","CENTER_NAME":"EARTH","REV_AT_EPOCH":"3650","SEMIMAJOR_AXIS":"6917.860","DECAY_DATE":null,"REF_FRAME":"TEME","TLE_LINE2":"2 51117  53.2171 249.6008 0001864  47.8070 312.3081 15.08846524 36505","OBJECT_ID":"2022-005P","EPHEMERIS_TYPE":"0","TIME_SYSTEM":"UTC","MEAN_MOTION_DDOT":"0.0000000000000","MEAN_ELEMENT_THEORY":"SGP4","INCLINATION":"53.2171","GP_ID":"212401169","ECCENTRICITY":"0.00018640","MEAN_MOTION":"15.08846524","CLASSIFICATION_TYPE":"U","COUNTRY_CODE":"US","OBJECT_NAME":"STARLINK-3391","RA_OF_ASC_NODE":"249.6008","EPOCH":"2022-09-12T09:44:08.412288","PERIOD":"95.437","MEAN_MOTION_DOT":"-0.00000463","MEAN_ANOMALY":"312.3081","ARG_OF_PERICENTER":"47.8070"},{"EPOCH":"2022-09-12T05:24:28.353024","RA_OF_ASC_NODE":"250.4068","MEAN_MOTION_DOT":"0.00001088","PERIOD":"95.437","ARG_OF_PERICENTER":"47.3967","MEAN_ANOMALY":"312.7193","MEAN_MOTION_DDOT":"0.0000000000000","TIME_SYSTEM":"UTC","GP_ID":"212399917","MEAN_ELEMENT_THEORY":"SGP4","INCLINATION":"53.2169","CLASSIFICATION_TYPE":"U","MEAN_MOTION":"15.08842098","ECCENTRICITY":"0.00019830","OBJECT_NAME":"STARLINK-3394","COUNTRY_CODE":"US","PERIAPSIS":"538.367","ELEMENT_SET_NO":"999","SITE":"AFETR","SEMIMAJOR_AXIS":"6917.874","REV_AT_EPOCH":"3647","CENTER_NAME":"EARTH","TLE_LINE2":"2 51118  53.2169 250.4068 0001983  47.3967 312.7193 15.08842098 36477","REF_FRAME":"TEME","DECAY_DATE":null,"EPHEMERIS_TYPE":"0","OBJECT_ID":"2022-005Q","TLE_LINE1":"1 51118U 22005Q   22255.22532816  .00001088  00000-0  86426-4 0  9997","RCS_SIZE":"LARGE","FILE":"3570189","NORAD_CAT_ID":"51118","APOAPSIS":"541.111","OBJECT_TYPE":"PAYLOAD","LAUNCH_DATE":"2022-01-19","BSTAR":"0.00008642600000"},{"GP_ID":"212400167","MEAN_ELEMENT_THEORY":"SGP4","INCLINATION":"53.2158","MEAN_MOTION_DDOT":"0.0000000000000","TIME_SYSTEM":"UTC","OBJECT_NAME":"STARLINK-3390","COUNTRY_CODE":"US","CLASSIFICATION_TYPE":"U","ECCENTRICITY":"0.00016550","MEAN_MOTION":"15.08847031","EPOCH":"2022-09-12T09:38:50.486208","RA_OF_ASC_NODE":"249.6270","ARG_OF_PERICENTER":"42.4007","MEAN_ANOMALY":"317.7113","PERIOD":"95.437","MEAN_MOTION_DOT":"-0.00000716","FILE":"3570189","NORAD_CAT_ID":"51119","RCS_SIZE":"LARGE","TLE_LINE1":"1 51119U 22005R   22255.40197322 -.00000716  00000-0 -26900-4 0  9997","LAUNCH_DATE":"2022-01-19","OBJECT_TYPE":"PAYLOAD","BSTAR":"-0.00002690000000","APOAPSIS":"540.869","CENTER_NAME":"EARTH","REV_AT_EPOCH":"3650","SEMIMAJOR_AXIS":"6917.859","ELEMENT_SET_NO":"999","SITE":"AFETR","PERIAPSIS":"538.579","EPHEMERIS_TYPE":"0","OBJECT_ID":"2022-005R","TLE_LINE2":"2 51119  53.2158 249.6270 0001655  42.4007 317.7113 15.08847031 36501","DECAY_DATE":null,"REF_FRAME":"TEME"},{"MEAN_ANOMALY":"319.0550","ARG_OF_PERICENTER":"41.0636","PERIOD":"95.437","MEAN_MOTION_DOT":"-0.00000159","RA_OF_ASC_NODE":"248.1820","EPOCH":"2022-09-12T17:25:10.672608","COUNTRY_CODE":"US","OBJECT_NAME":"STARLINK-3398","ECCENTRICITY":"0.00025810","MEAN_MOTION":"15.08841699","CLASSIFICATION_TYPE":"U","MEAN_ELEMENT_THEORY":"SGP4","INCLINATION":"53.2156","GP_ID":"212432519","TIME_SYSTEM":"UTC","MEAN_MOTION_DDOT":"0.0000000000000","OBJECT_ID":"2022-005S","EPHEMERIS_TYPE":"0","REF_FRAME":"TEME","DECAY_DATE":null,"TLE_LINE2":"2 51120  53.2156 248.1820 0002581  41.0636 319.0550 15.08841699 36557","CENTER_NAME":"EARTH","REV_AT_EPOCH":"3655","SEMIMAJOR_AXIS":"6917.875","ELEMENT_SET_NO":"999","SITE":"AFETR","PERIAPSIS":"537.955","BSTAR":"0.00000810810000","LAUNCH_DATE":"2022-01-19","OBJECT_TYPE":"PAYLOAD","APOAPSIS":"541.526","FILE":"3570509","NORAD_CAT_ID":"51120","RCS_SIZE":"LARGE","TLE_LINE1":"1 51120U 22005S   22255.72581797 -.00000159  00000-0  81081-5 0  9999"},{"MEAN_ELEMENT_THEORY":"SGP4","INCLINATION":"53.2165","GP_ID":"212433263","TIME_SYSTEM":"UTC","MEAN_MOTION_DDOT":"0.0000000000000","COUNTRY_CODE":"US","OBJECT_NAME":"STARLINK-3399","ECCENTRICITY":"0.00019420","MEAN_MOTION":"15.08837849","CLASSIFICATION_TYPE":"U","RA_OF_ASC_NODE":"248.3881","EPOCH":"2022-09-12T16:10:59.056032","MEAN_ANOMALY":"318.5667","ARG_OF_PERICENTER":"41.5472","PERIOD":"95.438","MEAN_MOTION_DOT":"-0.00001126","NORAD_CAT_ID":"51121","FILE":"3570509","RCS_SIZE":"LARGE","TLE_LINE1":"1 51121U 22005T   22255.67429463 -.00001126  00000-0 -52644-4 0  9993","BSTAR":"-0.00005264400000","LAUNCH_DATE":"2022-01-19","OBJECT_TYPE":"PAYLOAD","APOAPSIS":"541.095","REV_AT_EPOCH":"3654","CENTER_NAME":"EARTH","SEMIMAJOR_AXIS":"6917.887","ELEMENT_SET_NO":"999","SITE":"AFETR","PERIAPSIS":"538.409","EPHEMERIS_TYPE":"0","OBJECT_ID":"2022-005T","DECAY_DATE":null,"REF_FRAME":"TEME","TLE_LINE2":"2 51121  53.2165 248.3881 0001942  41.5472 318.5667 15.08837849 36544"},{"EPHEMERIS_TYPE":"0","OBJECT_ID":"2022-005U","TLE_LINE2":"2 51122  53.2162 249.3520 0001601  57.1187 302.9959 15.08849045 36510","REF_FRAME":"TEME","DECAY_DATE":null,"CENTER_NAME":"EARTH","REV_AT_EPOCH":"3651","SEMIMAJOR_AXIS":"6917.853","ELEMENT_SET_NO":"999","SITE":"AFETR","PERIAPSIS":"538.610","OBJECT_TYPE":"PAYLOAD","LAUNCH_DATE":"2022-01-19","BSTAR":"0.00007518200000","APOAPSIS":"540.825","NORAD_CAT_ID":"51122","FILE":"3570189","RCS_SIZE":"LARGE","TLE_LINE1":"1 51122U 22005U   22255.46453020  .00000909  00000-0  75182-4 0  9995","ARG_OF_PERICENTER":"57.1187","MEAN_ANOMALY":"302.9959","PERIOD":"95.437","MEAN_MOTION_DOT":"0.00000909","EPOCH":"2022-09-12T11:08:55.409280","RA_OF_ASC_NODE":"249.3520","OBJECT_NAME":"STARLINK-3373","COUNTRY_CODE":"US","CLASSIFICATION_TYPE":"U","ECCENTRICITY":"0.00016010","MEAN_MOTION":"15.08849045","GP_ID":"212400418","MEAN_ELEMENT_THEORY":"SGP4","INCLINATION":"53.2162","MEAN_MOTION_DDOT":"0.0000000000000","TIME_SYSTEM":"UTC"}];
